[{"OBJECT_NAME":"STARLINK-4157","OBJECT_ID":"2022-076BB","EPOCH":"2026-03-09T06:52:27.258240","MEAN_MOTION":15.08838961,"ECCENTRICITY":0.00014423,"INCLINATION":53.2176,"RA_OF_ASC_NODE":75.9297,"ARG_OF_PERICENTER":87.7,"MEAN_ANOMALY":272.4158,"EPHEMERIS_TYPE":0,"CLASSIFICATION_TYPE":"U","NORAD_CAT_ID":53035,"ELEMENT_SET_NO":999,"REV_AT_EPOCH":20306,"BSTAR":-2.6227747e-5,"MEAN_MOTION_DOT":-7.05e-6,"MEAN_MOTION_DDOT":0},{"OBJECT_NAME":"OBJECT H","OBJECT_ID":"2025-313H","EPOCH":"2026-03-09T22:36:06.294528","MEAN_MOTION":15.02722765,"ECCENTRICITY":0.0085698,"INCLINATION":97.296,"RA_OF_ASC_NODE":142.3052,"ARG_OF_PERICENTER":313.0136,"MEAN_ANOMALY":46.393,"EPHEMERIS_TYPE":0,"CLASSIFICATION_TYPE":"U","NORAD_CAT_ID":67255,"ELEMENT_SET_NO":999,"REV_AT_EPOCH":1072,"BSTAR":0.0002424576,"MEAN_MOTION_DOT":3.444e-5,"MEAN_MOTION_DDOT":0}]
